Model Marker Errors from IK
version=1
nRows=1000
nColumns=4
inDegrees=no
endheader
time	total_squared_error	marker_error_RMS	marker_error_max
      0.00500000	      0.01213659	      0.02011350	      0.05930547
      0.01000000	      0.01203429	      0.02002856	      0.05908553
      0.01500000	      0.01194332	      0.01995271	      0.05888146
      0.02000000	      0.01184616	      0.01987139	      0.05866622
      0.02500000	      0.01173698	      0.01977960	      0.05842610
      0.03000000	      0.01162400	      0.01968418	      0.05815531
      0.03500000	      0.01149896	      0.01957802	      0.05784613
      0.04000000	      0.01136298	      0.01946191	      0.05749323
      0.04500000	      0.01122967	      0.01934741	      0.05712513
      0.05000000	      0.01109571	      0.01923166	      0.05675845
      0.05500000	      0.01096194	      0.01911538	      0.05639110
      0.06000000	      0.01084878	      0.01901647	      0.05603066
      0.06500000	      0.01077808	      0.01895440	      0.05568366
      0.07000000	      0.01077461	      0.01895135	      0.05535252
      0.07500000	      0.01084728	      0.01901515	      0.05502411
      0.08000000	      0.01099168	      0.01914130	      0.05470516
      0.08500000	      0.01119456	      0.01931714	      0.05439760
      0.09000000	      0.01143096	      0.01952004	      0.05409637
      0.09500000	      0.01166627	      0.01971993	      0.05376675
      0.10000000	      0.01188028	      0.01989999	      0.05339767
      0.10500000	      0.01205043	      0.02004198	      0.05293940
      0.11000000	      0.01216064	      0.02013342	      0.05236789
      0.11500000	      0.01220522	      0.02017029	      0.05166888
      0.12000000	      0.01218856	      0.02015652	      0.05085940
      0.12500000	      0.01211642	      0.02009678	      0.04995654
      0.13000000	      0.01200269	      0.02000224	      0.04902781
      0.13500000	      0.01186172	      0.01988443	      0.04811684
      0.14000000	      0.01171182	      0.01975839	      0.04726768
      0.14500000	      0.01156870	      0.01963729	      0.04651333
      0.15000000	      0.01144707	      0.01953379	      0.04606944
      0.15500000	      0.01136148	      0.01946063	      0.04578400
      0.16000000	      0.01132496	      0.01942932	      0.04565016
      0.16500000	      0.01134258	      0.01944444	      0.04566145
      0.17000000	      0.01141585	      0.01950713	      0.04582529
      0.17500000	      0.01154294	      0.01961542	      0.04612221
      0.18000000	      0.01171612	      0.01976202	      0.04653252
      0.18500000	      0.01192139	      0.01993438	      0.04703484
      0.19000000	      0.01214900	      0.02012378	      0.04758456
      0.19500000	      0.01238344	      0.02031702	      0.04812680
      0.20000000	      0.01260971	      0.02050180	      0.04863132
      0.20500000	      0.01281067	      0.02066452	      0.04906838
      0.21000000	      0.01298333	      0.02080331	      0.04943169
      0.21500000	      0.01311667	      0.02090986	      0.04972610
      0.22000000	      0.01320830	      0.02098277	      0.04995943
      0.22500000	      0.01326066	      0.02102432	      0.05014346
      0.23000000	      0.01328272	      0.02104180	      0.05029611
      0.23500000	      0.01327178	      0.02103313	      0.05039308
      0.24000000	      0.01323342	      0.02100272	      0.05043789
      0.24500000	      0.01317553	      0.02095673	      0.05044883
      0.25000000	      0.01310167	      0.02089790	      0.05044043
      0.25500000	      0.01301452	      0.02082828	      0.05058386
      0.26000000	      0.01291746	      0.02075047	      0.05075812
      0.26500000	      0.01281822	      0.02067061	      0.05096694
      0.27000000	      0.01271436	      0.02058670	      0.05121093
      0.27500000	      0.01260927	      0.02050144	      0.05149995
      0.28000000	      0.01250557	      0.02041696	      0.05182379
      0.28500000	      0.01240520	      0.02033486	      0.05218865
      0.29000000	      0.01230629	      0.02025364	      0.05256724
      0.29500000	      0.01220683	      0.02017162	      0.05296220
      0.30000000	      0.01210675	      0.02008876	      0.05337055
      0.30500000	      0.01200017	      0.02000014	      0.05379012
      0.31000000	      0.01189085	      0.01990883	      0.05421478
      0.31500000	      0.01177910	      0.01981506	      0.05465117
      0.32000000	      0.01167113	      0.01972403	      0.05509467
      0.32500000	      0.01156449	      0.01963372	      0.05553188
      0.33000000	      0.01146309	      0.01954745	      0.05596996
      0.33500000	      0.01136597	      0.01946447	      0.05640040
      0.34000000	      0.01127608	      0.01938735	      0.05682547
      0.34500000	      0.01119347	      0.01931620	      0.05724359
      0.35000000	      0.01112483	      0.01925689	      0.05766093
      0.35500000	      0.01107245	      0.01921150	      0.05805927
      0.36000000	      0.01103912	      0.01918256	      0.05845173
      0.36500000	      0.01102623	      0.01917136	      0.05881937
      0.37000000	      0.01103548	      0.01917940	      0.05916173
      0.37500000	      0.01106507	      0.01920510	      0.05947016
      0.38000000	      0.01111233	      0.01924606	      0.05975201
      0.38500000	      0.01117707	      0.01930204	      0.05999185
      0.39000000	      0.01125190	      0.01936656	      0.06019596
      0.39500000	      0.01133188	      0.01943526	      0.06036791
      0.40000000	      0.01140892	      0.01950121	      0.06050263
      0.40500000	      0.01147809	      0.01956024	      0.06059707
      0.41000000	      0.01153174	      0.01960590	      0.06066039
      0.41500000	      0.01157043	      0.01963877	      0.06069691
      0.42000000	      0.01159539	      0.01965994	      0.06070381
      0.42500000	      0.01161079	      0.01967298	      0.06069237
      0.43000000	      0.01162272	      0.01968309	      0.06067039
      0.43500000	      0.01163238	      0.01969127	      0.06063542
      0.44000000	      0.01164325	      0.01970046	      0.06059083
      0.44500000	      0.01165441	      0.01970991	      0.06053613
      0.45000000	      0.01166109	      0.01971555	      0.06046821
      0.45500000	      0.01166109	      0.01971555	      0.06038110
      0.46000000	      0.01165248	      0.01970827	      0.06027678
      0.46500000	      0.01163092	      0.01969003	      0.06014286
      0.47000000	      0.01159200	      0.01965706	      0.05997517
      0.47500000	      0.01153513	      0.01960878	      0.05976391
      0.48000000	      0.01145591	      0.01954133	      0.05950918
      0.48500000	      0.01135383	      0.01945408	      0.05920867
      0.49000000	      0.01123145	      0.01934895	      0.05886722
      0.49500000	      0.01109433	      0.01923047	      0.05849152
      0.50000000	      0.01094811	      0.01910332	      0.05809141
      0.50500000	      0.01079900	      0.01897279	      0.05766713
      0.51000000	      0.01065130	      0.01884260	      0.05722346
      0.51500000	      0.01051182	      0.01871882	      0.05677301
      0.52000000	      0.01038419	      0.01860483	      0.05632322
      0.52500000	      0.01027291	      0.01850488	      0.05588297
      0.53000000	      0.01018044	      0.01842140	      0.05546973
      0.53500000	      0.01010793	      0.01835568	      0.05508301
      0.54000000	      0.01005142	      0.01830430	      0.05472194
      0.54500000	      0.01000988	      0.01826644	      0.05438156
      0.55000000	      0.00997717	      0.01823657	      0.05406111
      0.55500000	      0.00994794	      0.01820983	      0.05374947
      0.56000000	      0.00991963	      0.01818390	      0.05345370
      0.56500000	      0.00989356	      0.01816000	      0.05317058
      0.57000000	      0.00986459	      0.01813339	      0.05291239
      0.57500000	      0.00983131	      0.01810277	      0.05266869
      0.58000000	      0.00979291	      0.01806739	      0.05244413
      0.58500000	      0.00974867	      0.01802652	      0.05222472
      0.59000000	      0.00968776	      0.01797012	      0.05200196
      0.59500000	      0.00959993	      0.01788848	      0.05174056
      0.60000000	      0.00950316	      0.01779809	      0.05144608
      0.60500000	      0.00941253	      0.01771302	      0.05111354
      0.61000000	      0.00933262	      0.01763766	      0.05074644
      0.61500000	      0.00926186	      0.01757068	      0.05035151
      0.62000000	      0.00921245	      0.01752374	      0.04995440
      0.62500000	      0.00917081	      0.01748410	      0.04956437
      0.63000000	      0.00913849	      0.01745326	      0.04918822
      0.63500000	      0.00913221	      0.01744727	      0.04883596
      0.64000000	      0.00917901	      0.01749191	      0.04851192
      0.64500000	      0.00928696	      0.01759447	      0.04821938
      0.65000000	      0.00945404	      0.01775203	      0.04795770
      0.65500000	      0.00966551	      0.01794947	      0.04772657
      0.66000000	      0.00989902	      0.01816501	      0.04751341
      0.66500000	      0.01012448	      0.01837070	      0.04729748
      0.67000000	      0.01032430	      0.01855110	      0.04704168
      0.67500000	      0.01049186	      0.01870103	      0.04670957
      0.68000000	      0.01062213	      0.01881677	      0.04627551
      0.68500000	      0.01070586	      0.01889079	      0.04572891
      0.69000000	      0.01074585	      0.01892604	      0.04507545
      0.69500000	      0.01075000	      0.01892969	      0.04435916
      0.70000000	      0.01072241	      0.01890539	      0.04362186
      0.70500000	      0.01066639	      0.01885593	      0.04307262
      0.71000000	      0.01059536	      0.01879304	      0.04273632
      0.71500000	      0.01052232	      0.01872816	      0.04247913
      0.72000000	      0.01045852	      0.01867130	      0.04229646
      0.72500000	      0.01041700	      0.01863420	      0.04220830
      0.73000000	      0.01041394	      0.01863146	      0.04222601
      0.73500000	      0.01045564	      0.01866873	      0.04235369
      0.74000000	      0.01054176	      0.01874545	      0.04256857
      0.74500000	      0.01066570	      0.01885533	      0.04285048
      0.75000000	      0.01081850	      0.01898991	      0.04316990
      0.75500000	      0.01098698	      0.01913720	      0.04350217
      0.76000000	      0.01116063	      0.01928785	      0.04382943
      0.76500000	      0.01132677	      0.01943087	      0.04412736
      0.77000000	      0.01147648	      0.01955887	      0.04437925
      0.77500000	      0.01160189	      0.01966544	      0.04458493
      0.78000000	      0.01169509	      0.01974427	      0.04472965
      0.78500000	      0.01175304	      0.01979313	      0.04479650
      0.79000000	      0.01177800	      0.01981414	      0.04480362
      0.79500000	      0.01177708	      0.01981337	      0.04477058
      0.80000000	      0.01175517	      0.01979492	      0.04471676
      0.80500000	      0.01172458	      0.01976915	      0.04469667
      0.81000000	      0.01168986	      0.01973986	      0.04473897
      0.81500000	      0.01165416	      0.01970970	      0.04484785
      0.82000000	      0.01161262	      0.01967453	      0.04503029
      0.82500000	      0.01156549	      0.01963457	      0.04527412
      0.83000000	      0.01150670	      0.01958460	      0.04551917
      0.83500000	      0.01143641	      0.01952469	      0.04576080
      0.84000000	      0.01135571	      0.01945569	      0.04601041
      0.84500000	      0.01127312	      0.01938480	      0.04627085
      0.85000000	      0.01118780	      0.01931131	      0.04658719
      0.85500000	      0.01110316	      0.01923812	      0.04695171
      0.86000000	      0.01101505	      0.01916164	      0.04732241
      0.86500000	      0.01092318	      0.01908156	      0.04770953
      0.87000000	      0.01082089	      0.01899201	      0.04810586
      0.87500000	      0.01070858	      0.01889319	      0.04850386
      0.88000000	      0.01058413	      0.01878309	      0.04890821
      0.88500000	      0.01045587	      0.01866893	      0.04932131
      0.89000000	      0.01032410	      0.01855092	      0.04973924
      0.89500000	      0.01019213	      0.01843197	      0.05015533
      0.90000000	      0.01006381	      0.01831558	      0.05057443
      0.90500000	      0.00994193	      0.01820433	      0.05097867
      0.91000000	      0.00982941	      0.01810102	      0.05138131
      0.91500000	      0.00972896	      0.01800830	      0.05177282
      0.92000000	      0.00964639	      0.01793171	      0.05216270
      0.92500000	      0.00958328	      0.01787296	      0.05254371
      0.93000000	      0.00954415	      0.01783643	      0.05292682
      0.93500000	      0.00952966	      0.01782289	      0.05330041
      0.94000000	      0.00953866	      0.01783131	      0.05367242
      0.94500000	      0.00956882	      0.01785947	      0.05403266
      0.95000000	      0.00961811	      0.01790541	      0.05437946
      0.95500000	      0.00967801	      0.01796108	      0.05471070
      0.96000000	      0.00974312	      0.01802139	      0.05502636
      0.96500000	      0.00981223	      0.01808520	      0.05532395
      0.97000000	      0.00988320	      0.01815048	      0.05561424
      0.97500000	      0.00995250	      0.01821401	      0.05590033
      0.98000000	      0.01002013	      0.01827578	      0.05618616
      0.98500000	      0.01008386	      0.01833381	      0.05646876
      0.99000000	      0.01014247	      0.01838702	      0.05674194
      0.99500000	      0.01019539	      0.01843492	      0.05699763
      1.00000000	      0.01024237	      0.01847734	      0.05724110
      1.00500000	      0.01028581	      0.01851649	      0.05746340
      1.01000000	      0.01032587	      0.01855251	      0.05767753
      1.01500000	      0.01035672	      0.01858020	      0.05788031
      1.02000000	      0.01038067	      0.01860168	      0.05807296
      1.02500000	      0.01039861	      0.01861774	      0.05824565
      1.03000000	      0.01040473	      0.01862322	      0.05839070
      1.03500000	      0.01039676	      0.01861609	      0.05849173
      1.04000000	      0.01037806	      0.01859934	      0.05853520
      1.04500000	      0.01034290	      0.01856781	      0.05851155
      1.05000000	      0.01029171	      0.01852179	      0.05841743
      1.05500000	      0.01022844	      0.01846478	      0.05825630
      1.06000000	      0.01015924	      0.01840221	      0.05803237
      1.06500000	      0.01008683	      0.01833651	      0.05776217
      1.07000000	      0.01001866	      0.01827445	      0.05745466
      1.07500000	      0.00995818	      0.01821921	      0.05712102
      1.08000000	      0.00991679	      0.01818130	      0.05677533
      1.08500000	      0.00989040	      0.01815709	      0.05642213
      1.09000000	      0.00988012	      0.01814765	      0.05606388
      1.09500000	      0.00989045	      0.01815714	      0.05571325
      1.10000000	      0.00991380	      0.01817856	      0.05536873
      1.10500000	      0.00993760	      0.01820037	      0.05503234
      1.11000000	      0.00995865	      0.01821964	      0.05470720
      1.11500000	      0.00997437	      0.01823401	      0.05440668
      1.12000000	      0.00997722	      0.01823661	      0.05411963
      1.12500000	      0.00997259	      0.01823238	      0.05385756
      1.13000000	      0.00995136	      0.01821296	      0.05361719
      1.13500000	      0.00992257	      0.01818660	      0.05339568
      1.14000000	      0.00987773	      0.01814546	      0.05318137
      1.14500000	      0.00980792	      0.01808122	      0.05297237
      1.15000000	      0.00971376	      0.01799422	      0.05275341
      1.15500000	      0.00960943	      0.01789733	      0.05252048
      1.16000000	      0.00949399	      0.01778950	      0.05226834
      1.16500000	      0.00938069	      0.01768303	      0.05199035
      1.17000000	      0.00928220	      0.01758996	      0.05169271
      1.17500000	      0.00920148	      0.01751331	      0.05138047
      1.18000000	      0.00913390	      0.01744887	      0.05105522
      1.18500000	      0.00907132	      0.01738900	      0.05073169
      1.19000000	      0.00902152	      0.01734121	      0.05042988
      1.19500000	      0.00900021	      0.01732071	      0.05015510
      1.20000000	      0.00903119	      0.01735050	      0.04992336
      1.20500000	      0.00912753	      0.01744279	      0.04974514
      1.21000000	      0.00929525	      0.01760232	      0.04961273
      1.21500000	      0.00953061	      0.01782378	      0.04955311
      1.22000000	      0.00981112	      0.01808418	      0.04988329
      1.22500000	      0.01009696	      0.01834572	      0.05020978
      1.23000000	      0.01036280	      0.01858566	      0.05048920
      1.23500000	      0.01058144	      0.01878070	      0.05065465
      1.24000000	      0.01073695	      0.01891820	      0.05067792
      1.24500000	      0.01082143	      0.01899248	      0.05052757
      1.25000000	      0.01084184	      0.01901038	      0.05021764
      1.25500000	      0.01079812	      0.01897201	      0.04976587
      1.26000000	      0.01071338	      0.01889743	      0.04922819
      1.26500000	      0.01060396	      0.01880067	      0.04865284
      1.27000000	      0.01049152	      0.01870073	      0.04811376
      1.27500000	      0.01039644	      0.01861580	      0.04765329
      1.28000000	      0.01034397	      0.01856877	      0.04733540
      1.28500000	      0.01034070	      0.01856583	      0.04717277
      1.29000000	      0.01039688	      0.01861619	      0.04718092
      1.29500000	      0.01051370	      0.01872049	      0.04734629
      1.30000000	      0.01069138	      0.01887801	      0.04766387
      1.30500000	      0.01091694	      0.01907611	      0.04809932
      1.31000000	      0.01118093	      0.01930538	      0.04864061
      1.31500000	      0.01146578	      0.01954975	      0.04924959
      1.32000000	      0.01175338	      0.01979341	      0.04991356
      1.32500000	      0.01201936	      0.02001613	      0.05060276
      1.33000000	      0.01224948	      0.02020683	      0.05128686
      1.33500000	      0.01243227	      0.02035704	      0.05194818
      1.34000000	      0.01255876	      0.02046034	      0.05256547
      1.34500000	      0.01262632	      0.02051530	      0.05308789
      1.35000000	      0.01264317	      0.02052898	      0.05349609
      1.35500000	      0.01261237	      0.02050396	      0.05378514
      1.36000000	      0.01254628	      0.02045017	      0.05395138
      1.36500000	      0.01245977	      0.02037954	      0.05402175
      1.37000000	      0.01236100	      0.02029861	      0.05404423
      1.37500000	      0.01225577	      0.02021202	      0.05404585
      1.38000000	      0.01215055	      0.02012506	      0.05404841
      1.38500000	      0.01204604	      0.02003833	      0.05406592
      1.39000000	      0.01194115	      0.01995090	      0.05409982
      1.39500000	      0.01183858	      0.01986503	      0.05414266
      1.40000000	      0.01173905	      0.01978135	      0.05420075
      1.40500000	      0.01164517	      0.01970209	      0.05427327
      1.41000000	      0.01155377	      0.01962462	      0.05435948
      1.41500000	      0.01146426	      0.01954845	      0.05446335
      1.42000000	      0.01137685	      0.01947378	      0.05459678
      1.42500000	      0.01129162	      0.01940070	      0.05476854
      1.43000000	      0.01120570	      0.01932676	      0.05497468
      1.43500000	      0.01111828	      0.01925121	      0.05518847
      1.44000000	      0.01103285	      0.01917712	      0.05540926
      1.44500000	      0.01094870	      0.01910384	      0.05561389
      1.45000000	      0.01086486	      0.01903055	      0.05577030
      1.45500000	      0.01078375	      0.01895938	      0.05588511
      1.46000000	      0.01071624	      0.01889995	      0.05599867
      1.46500000	      0.01066231	      0.01885233	      0.05619956
      1.47000000	      0.01062622	      0.01882040	      0.05663741
      1.47500000	      0.01061331	      0.01880896	      0.05705737
      1.48000000	      0.01062881	      0.01882269	      0.05746322
      1.48500000	      0.01066617	      0.01885574	      0.05785463
      1.49000000	      0.01073058	      0.01891259	      0.05822546
      1.49500000	      0.01081693	      0.01898853	      0.05856164
      1.50000000	      0.01091770	      0.01907677	      0.05886262
      1.50500000	      0.01102287	      0.01916844	      0.05911580
      1.51000000	      0.01113154	      0.01926269	      0.05932694
      1.51500000	      0.01122758	      0.01934561	      0.05949624
      1.52000000	      0.01130596	      0.01941302	      0.05962792
      1.52500000	      0.01136826	      0.01946643	      0.05971672
      1.53000000	      0.01141408	      0.01950562	      0.05977489
      1.53500000	      0.01143934	      0.01952719	      0.05979617
      1.54000000	      0.01145397	      0.01953967	      0.05978791
      1.54500000	      0.01146388	      0.01954813	      0.05975088
      1.55000000	      0.01147112	      0.01955430	      0.05969880
      1.55500000	      0.01148042	      0.01956222	      0.05962814
      1.56000000	      0.01149240	      0.01957243	      0.05954412
      1.56500000	      0.01150437	      0.01958262	      0.05943814
      1.57000000	      0.01151488	      0.01959156	      0.05931044
      1.57500000	      0.01152199	      0.01959761	      0.05915363
      1.58000000	      0.01151921	      0.01959525	      0.05896111
      1.58500000	      0.01150421	      0.01958248	      0.05872183
      1.59000000	      0.01147409	      0.01955683	      0.05844301
      1.59500000	      0.01142612	      0.01951591	      0.05811845
      1.60000000	      0.01135532	      0.01945535	      0.05774599
      1.60500000	      0.01126411	      0.01937706	      0.05733261
      1.61000000	      0.01115514	      0.01928310	      0.05688761
      1.61500000	      0.01102587	      0.01917105	      0.05640673
      1.62000000	      0.01087819	      0.01904222	      0.05590131
      1.62500000	      0.01071768	      0.01890122	      0.05538212
      1.63000000	      0.01054724	      0.01875032	      0.05485638
      1.63500000	      0.01037409	      0.01859578	      0.05433339
      1.64000000	      0.01020579	      0.01844433	      0.05382809
      1.64500000	      0.01005106	      0.01830397	      0.05334818
      1.65000000	      0.00991459	      0.01817928	      0.05290345
      1.65500000	      0.00980011	      0.01807402	      0.05249949
      1.66000000	      0.00970654	      0.01798753	      0.05214442
      1.66500000	      0.00963520	      0.01792131	      0.05184333
      1.67000000	      0.00958258	      0.01787231	      0.05160025
      1.67500000	      0.00954557	      0.01783776	      0.05141104
      1.68000000	      0.00951977	      0.01781364	      0.05128238
      1.68500000	      0.00948116	      0.01777748	      0.05120076
      1.69000000	      0.00941466	      0.01771502	      0.05115814
      1.69500000	      0.00934079	      0.01764539	      0.05114946
      1.70000000	      0.00926533	      0.01757397	      0.05116303
      1.70500000	      0.00918328	      0.01749598	      0.05117079
      1.71000000	      0.00910829	      0.01742440	      0.05115708
      1.71500000	      0.00903911	      0.01735810	      0.05110159
      1.72000000	      0.00894565	      0.01726813	      0.05098581
      1.72500000	      0.00883079	      0.01715691	      0.05081317
      1.73000000	      0.00871128	      0.01704042	      0.05059149
      1.73500000	      0.00859793	      0.01692919	      0.05033771
      1.74000000	      0.00851652	      0.01684885	      0.05007114
      1.74500000	      0.00849331	      0.01682588	      0.04980684
      1.75000000	      0.00854158	      0.01687363	      0.04955621
      1.75500000	      0.00866892	      0.01699895	      0.04933572
      1.76000000	      0.00888042	      0.01720505	      0.04913562
      1.76500000	      0.00915845	      0.01747232	      0.04935971
      1.77000000	      0.00947339	      0.01777019	      0.04970264
      1.77500000	      0.00978825	      0.01806309	      0.05000008
      1.78000000	      0.01006449	      0.01831619	      0.05017336
      1.78500000	      0.01026768	      0.01850016	      0.05017285
      1.79000000	      0.01038608	      0.01860652	      0.04996499
      1.79500000	      0.01041597	      0.01863328	      0.04957745
      1.80000000	      0.01036992	      0.01859205	      0.04903846
      1.80500000	      0.01027334	      0.01850526	      0.04842509
      1.81000000	      0.01015354	      0.01839705	      0.04782084
      1.81500000	      0.01003986	      0.01829377	      0.04733129
      1.82000000	      0.00996237	      0.01822304	      0.04699852
      1.82500000	      0.00993787	      0.01820061	      0.04685702
      1.83000000	      0.00997535	      0.01823490	      0.04691611
      1.83500000	      0.01007802	      0.01832851	      0.04716607
      1.84000000	      0.01024013	      0.01847533	      0.04756071
      1.84500000	      0.01044516	      0.01865937	      0.04807406
      1.85000000	      0.01067798	      0.01886618	      0.04866324
      1.85500000	      0.01091861	      0.01907757	      0.04928189
      1.86000000	      0.01115383	      0.01928197	      0.04988561
      1.86500000	      0.01136597	      0.01946447	      0.05044657
      1.87000000	      0.01155115	      0.01962240	      0.05094013
      1.87500000	      0.01169651	      0.01974547	      0.05133528
      1.88000000	      0.01180746	      0.01983890	      0.05165535
      1.88500000	      0.01188129	      0.01990083	      0.05190640
      1.89000000	      0.01192348	      0.01993613	      0.05209360
      1.89500000	      0.01193811	      0.01994836	      0.05224423
      1.90000000	      0.01194189	      0.01995152	      0.05242007
      1.90500000	      0.01192991	      0.01994151	      0.05259468
      1.91000000	      0.01190957	      0.01992450	      0.05279922
      1.91500000	      0.01188728	      0.01990585	      0.05305162
      1.92000000	      0.01186124	      0.01988403	      0.05333405
      1.92500000	      0.01182684	      0.01985517	      0.05361525
      1.93000000	      0.01179091	      0.01982499	      0.05392001
      1.93500000	      0.01175422	      0.01979413	      0.05423717
      1.94000000	      0.01171336	      0.01975969	      0.05456126
      1.94500000	      0.01167047	      0.01972348	      0.05489120
      1.95000000	      0.01162870	      0.01968815	      0.05523873
      1.95500000	      0.01158351	      0.01964986	      0.05559980
      1.96000000	      0.01153497	      0.01960865	      0.05597259
      1.96500000	      0.01148357	      0.01956491	      0.05636700
      1.97000000	      0.01142801	      0.01951752	      0.05680728
      1.97500000	      0.01136561	      0.01946416	      0.05728925
      1.98000000	      0.01129792	      0.01940612	      0.05780740
      1.98500000	      0.01121968	      0.01933881	      0.05833866
      1.99000000	      0.01113197	      0.01926306	      0.05886062
      1.99500000	      0.01103412	      0.01917822	      0.05933738
      2.00000000	      0.01093187	      0.01908915	      0.05976874
      2.00500000	      0.01083285	      0.01900250	      0.06014248
      2.01000000	      0.01075138	      0.01893091	      0.06048770
      2.01500000	      0.01069530	      0.01888148	      0.06080227
      2.02000000	      0.01067241	      0.01886125	      0.06108113
      2.02500000	      0.01068567	      0.01887297	      0.06130763
      2.03000000	      0.01073724	      0.01891845	      0.06149160
      2.03500000	      0.01082605	      0.01899653	      0.06162499
      2.04000000	      0.01094836	      0.01910354	      0.06171002
      2.04500000	      0.01109937	      0.01923484	      0.06177694
      2.05000000	      0.01127280	      0.01938453	      0.06184250
      2.05500000	      0.01145937	      0.01954428	      0.06190951
      2.06000000	      0.01164112	      0.01969866	      0.06198440
      2.06500000	      0.01181122	      0.01984206	      0.06208301
      2.07000000	      0.01196346	      0.01996952	      0.06220438
      2.07500000	      0.01209590	      0.02007976	      0.06235749
      2.08000000	      0.01220369	      0.02016903	      0.06254617
      2.08500000	      0.01228958	      0.02023987	      0.06276770
      2.09000000	      0.01235748	      0.02029571	      0.06301966
      2.09500000	      0.01241048	      0.02033919	      0.06329190
      2.10000000	      0.01245430	      0.02037507	      0.06357588
      2.10500000	      0.01249688	      0.02040987	      0.06386350
      2.11000000	      0.01254347	      0.02044788	      0.06413945
      2.11500000	      0.01259916	      0.02049322	      0.06438666
      2.12000000	      0.01266640	      0.02054783	      0.06459395
      2.12500000	      0.01274478	      0.02061130	      0.06474224
      2.13000000	      0.01282902	      0.02067931	      0.06480858
      2.13500000	      0.01291554	      0.02074893	      0.06480596
      2.14000000	      0.01299634	      0.02081373	      0.06473233
      2.14500000	      0.01306223	      0.02086642	      0.06458173
      2.15000000	      0.01310958	      0.02090421	      0.06436740
      2.15500000	      0.01313503	      0.02092449	      0.06410974
      2.16000000	      0.01313523	      0.02092465	      0.06379382
      2.16500000	      0.01310980	      0.02090439	      0.06342794
      2.17000000	      0.01306070	      0.02086520	      0.06302542
      2.17500000	      0.01298749	      0.02080664	      0.06259668
      2.18000000	      0.01289523	      0.02073260	      0.06215578
      2.18500000	      0.01278335	      0.02064247	      0.06171443
      2.19000000	      0.01265119	      0.02053549	      0.06127985
      2.19500000	      0.01250932	      0.02042002	      0.06087459
      2.20000000	      0.01235941	      0.02029730	      0.06049541
      2.20500000	      0.01220270	      0.02016821	      0.06013356
      2.21000000	      0.01204631	      0.02003856	      0.05979185
      2.21500000	      0.01189600	      0.01991314	      0.05947066
      2.22000000	      0.01174867	      0.01978945	      0.05915502
      2.22500000	      0.01161146	      0.01967356	      0.05885525
      2.23000000	      0.01148756	      0.01956831	      0.05856855
      2.23500000	      0.01138028	      0.01947672	      0.05830532
      2.24000000	      0.01128901	      0.01939846	      0.05807068
      2.24500000	      0.01121650	      0.01933607	      0.05786661
      2.25000000	      0.01115024	      0.01927886	      0.05769230
      2.25500000	      0.01109537	      0.01923137	      0.05756014
      2.26000000	      0.01104422	      0.01918699	      0.05744753
      2.26500000	      0.01098824	      0.01913830	      0.05732907
      2.27000000	      0.01091929	      0.01907817	      0.05720413
      2.27500000	      0.01083443	      0.01900388	      0.05704399
      2.28000000	      0.01070757	      0.01889230	      0.05682159
      2.28500000	      0.01053187	      0.01873666	      0.05653948
      2.29000000	      0.01032195	      0.01854899	      0.05622037
      2.29500000	      0.01009541	      0.01834431	      0.05583836
      2.30000000	      0.00988004	      0.01814758	      0.05543826
      2.30500000	      0.00970342	      0.01798464	      0.05502422
      2.31000000	      0.00959212	      0.01788120	      0.05462606
      2.31500000	      0.00956377	      0.01785476	      0.05422580
      2.32000000	      0.00963851	      0.01792439	      0.05387429
      2.32500000	      0.00981276	      0.01808568	      0.05352696
      2.33000000	      0.01006908	      0.01832037	      0.05320430
      2.33500000	      0.01037005	      0.01859216	      0.05284630
      2.34000000	      0.01067250	      0.01886134	      0.05243930
      2.34500000	      0.01091681	      0.01907600	      0.05191798
      2.35000000	      0.01107369	      0.01921258	      0.05129143
      2.35500000	      0.01113574	      0.01926633	      0.05051092
      2.36000000	      0.01111385	      0.01924738	      0.04959692
      2.36500000	      0.01101999	      0.01916593	      0.04858405
      2.37000000	      0.01089492	      0.01905687	      0.04753659
      2.37500000	      0.01075137	      0.01893090	      0.04647985
      2.38000000	      0.01060500	      0.01880159	      0.04548745
      2.38500000	      0.01047182	      0.01868316	      0.04463056
      2.39000000	      0.01036844	      0.01859071	      0.04394416
      2.39500000	      0.01029925	      0.01852859	      0.04344419
      2.40000000	      0.01028259	      0.01851359	      0.04315712
      2.40500000	      0.01032535	      0.01855204	      0.04308493
      2.41000000	      0.01042679	      0.01864296	      0.04319674
      2.41500000	      0.01058724	      0.01878585	      0.04345358
      2.42000000	      0.01080135	      0.01897485	      0.04382773
      2.42500000	      0.01105202	      0.01919377	      0.04429511
      2.43000000	      0.01132337	      0.01942796	      0.04481089
      2.43500000	      0.01159501	      0.01965961	      0.04534073
      2.44000000	      0.01184942	      0.01987412	      0.04586905
      2.44500000	      0.01206432	      0.02005352	      0.04647903
      2.45000000	      0.01222253	      0.02018459	      0.04706177
      2.45500000	      0.01231840	      0.02026360	      0.04756833
      2.46000000	      0.01235418	      0.02029300	      0.04799173
      2.46500000	      0.01232884	      0.02027218	      0.04832633
      2.47000000	      0.01224804	      0.02020565	      0.04856270
      2.47500000	      0.01213066	      0.02010859	      0.04872503
      2.48000000	      0.01198440	      0.01998700	      0.04884191
      2.48500000	      0.01181356	      0.01984403	      0.04892038
      2.49000000	      0.01162740	      0.01968705	      0.04898144
      2.49500000	      0.01143715	      0.01952533	      0.04906406
      2.50000000	      0.01124527	      0.01936085	      0.04915265
      2.50500000	      0.01105975	      0.01920048	      0.04936023
      2.51000000	      0.01088630	      0.01904932	      0.04962017
      2.51500000	      0.01072996	      0.01891205	      0.04993375
      2.52000000	      0.01059199	      0.01879006	      0.05030094
      2.52500000	      0.01047627	      0.01868713	      0.05073122
      2.53000000	      0.01038015	      0.01860121	      0.05119451
      2.53500000	      0.01030614	      0.01853477	      0.05169620
      2.54000000	      0.01024803	      0.01848245	      0.05217074
      2.54500000	      0.01020836	      0.01844665	      0.05263176
      2.55000000	      0.01018748	      0.01842777	      0.05307939
      2.55500000	      0.01018235	      0.01842313	      0.05349877
      2.56000000	      0.01018884	      0.01842900	      0.05386606
      2.56500000	      0.01021180	      0.01844975	      0.05423241
      2.57000000	      0.01024992	      0.01848415	      0.05458096
      2.57500000	      0.01030198	      0.01853103	      0.05487981
      2.58000000	      0.01037231	      0.01859418	      0.05513866
      2.58500000	      0.01047058	      0.01868206	      0.05539768
      2.59000000	      0.01059202	      0.01879009	      0.05563077
      2.59500000	      0.01073652	      0.01891782	      0.05583673
      2.60000000	      0.01090128	      0.01906242	      0.05604179
      2.60500000	      0.01108616	      0.01922339	      0.05626234
      2.61000000	      0.01127913	      0.01938998	      0.05646841
      2.61500000	      0.01147933	      0.01956129	      0.05666216
      2.62000000	      0.01168416	      0.01973504	      0.05684616
      2.62500000	      0.01188983	      0.01990798	      0.05718457
      2.63000000	      0.01209046	      0.02007524	      0.05754729
      2.63500000	      0.01229266	      0.02024242	      0.05787849
      2.64000000	      0.01249535	      0.02040862	      0.05816950
      2.64500000	      0.01269580	      0.02057167	      0.05840229
      2.65000000	      0.01289636	      0.02073352	      0.05857287
      2.65500000	      0.01310114	      0.02089748	      0.05868426
      2.66000000	      0.01329191	      0.02104908	      0.05872446
      2.66500000	      0.01347379	      0.02119260	      0.05870086
      2.67000000	      0.01364258	      0.02132493	      0.05862021
      2.67500000	      0.01378603	      0.02143675	      0.05848617
      2.68000000	      0.01389171	      0.02151876	      0.05830451
      2.68500000	      0.01396052	      0.02157199	      0.05809247
      2.69000000	      0.01398795	      0.02159317	      0.05786246
      2.69500000	      0.01396757	      0.02157743	      0.05761751
      2.70000000	      0.01391340	      0.02153555	      0.05736521
      2.70500000	      0.01383764	      0.02147684	      0.05711053
      2.71000000	      0.01374836	      0.02140745	      0.05685501
      2.71500000	      0.01365521	      0.02133480	      0.05659675
      2.72000000	      0.01357462	      0.02127175	      0.05634143
      2.72500000	      0.01350590	      0.02121784	      0.05608033
      2.73000000	      0.01344908	      0.02117316	      0.05581438
      2.73500000	      0.01340801	      0.02114081	      0.05553640
      2.74000000	      0.01336341	      0.02110562	      0.05524280
      2.74500000	      0.01330768	      0.02106156	      0.05492689
      2.75000000	      0.01323427	      0.02100339	      0.05459892
      2.75500000	      0.01312712	      0.02091819	      0.05426756
      2.76000000	      0.01297621	      0.02079760	      0.05393631
      2.76500000	      0.01279973	      0.02065569	      0.05360915
      2.77000000	      0.01261137	      0.02050315	      0.05330217
      2.77500000	      0.01242230	      0.02034888	      0.05300443
      2.78000000	      0.01223955	      0.02019864	      0.05269774
      2.78500000	      0.01206014	      0.02005006	      0.05235581
      2.79000000	      0.01188382	      0.01990295	      0.05196508
      2.79500000	      0.01170715	      0.01975445	      0.05150142
      2.80000000	      0.01153465	      0.01960837	      0.05097751
      2.80500000	      0.01137152	      0.01946922	      0.05040866
      2.81000000	      0.01122149	      0.01934037	      0.04982169
      2.81500000	      0.01108864	      0.01922553	      0.04952834
      2.82000000	      0.01098542	      0.01913585	      0.04929162
      2.82500000	      0.01092287	      0.01908129	      0.04908313
      2.83000000	      0.01090709	      0.01906750	      0.04891816
      2.83500000	      0.01093714	      0.01909376	      0.04878331
      2.84000000	      0.01099977	      0.01914834	      0.04865869
      2.84500000	      0.01107960	      0.01921770	      0.04853536
      2.85000000	      0.01115553	      0.01928344	      0.04836329
      2.85500000	      0.01120414	      0.01932541	      0.04812392
      2.86000000	      0.01121732	      0.01933677	      0.04782370
      2.86500000	      0.01118299	      0.01930716	      0.04743438
      2.87000000	      0.01109363	      0.01922987	      0.04693155
      2.87500000	      0.01095893	      0.01911276	      0.04638509
      2.88000000	      0.01079928	      0.01897303	      0.04577792
      2.88500000	      0.01062747	      0.01882150	      0.04512926
      2.89000000	      0.01046085	      0.01867337	      0.04450684
      2.89500000	      0.01031969	      0.01854696	      0.04395838
      2.90000000	      0.01022347	      0.01846029	      0.04348294
      2.90500000	      0.01017747	      0.01841872	      0.04312816
      2.91000000	      0.01019785	      0.01843715	      0.04290515
      2.91500000	      0.01029687	      0.01852644	      0.04280349
      2.92000000	      0.01047455	      0.01868560	      0.04281046
      2.92500000	      0.01071872	      0.01890213	      0.04291445
      2.93000000	      0.01102026	      0.01916617	      0.04362599
      2.93500000	      0.01135733	      0.01945707	      0.04468131
      2.94000000	      0.01169838	      0.01974705	      0.04564140
      2.94500000	      0.01201351	      0.02001126	      0.04644467
      2.95000000	      0.01227351	      0.02022664	      0.04702982
      2.95500000	      0.01245722	      0.02037745	      0.04734013
      2.96000000	      0.01255018	      0.02045335	      0.04734727
      2.96500000	      0.01255282	      0.02045549	      0.04705687
      2.97000000	      0.01247576	      0.02039262	      0.04649485
      2.97500000	      0.01233784	      0.02027958	      0.04571633
      2.98000000	      0.01216317	      0.02013552	      0.04491087
      2.98500000	      0.01197096	      0.01997578	      0.04490940
      2.99000000	      0.01178040	      0.01981616	      0.04495140
      2.99500000	      0.01160461	      0.01966775	      0.04504189
      3.00000000	      0.01145258	      0.01953849	      0.04515758
      3.00500000	      0.01132082	      0.01942577	      0.04532717
      3.01000000	      0.01121278	      0.01933286	      0.04556055
      3.01500000	      0.01111789	      0.01925088	      0.04580700
      3.02000000	      0.01102553	      0.01917075	      0.04608230
      3.02500000	      0.01093049	      0.01908794	      0.04640721
      3.03000000	      0.01082722	      0.01899756	      0.04672782
      3.03500000	      0.01071127	      0.01889557	      0.04703670
      3.04000000	      0.01058553	      0.01878433	      0.04734281
      3.04500000	      0.01044626	      0.01866035	      0.04762949
      3.05000000	      0.01029076	      0.01852094	      0.04786786
      3.05500000	      0.01012812	      0.01837400	      0.04808660
      3.06000000	      0.00995905	      0.01822000	      0.04827281
      3.06500000	      0.00978810	      0.01806295	      0.04842914
      3.07000000	      0.00962928	      0.01791581	      0.04855543
      3.07500000	      0.00949026	      0.01778600	      0.04867075
      3.08000000	      0.00937347	      0.01767623	      0.04876872
      3.08500000	      0.00928688	      0.01759439	      0.04884162
      3.09000000	      0.00923935	      0.01754932	      0.04889700
      3.09500000	      0.00923006	      0.01754049	      0.04892147
      3.10000000	      0.00925936	      0.01756830	      0.04890810
      3.10500000	      0.00932148	      0.01762714	      0.04885006
      3.11000000	      0.00941568	      0.01771598	      0.04878468
      3.11500000	      0.00952793	      0.01782127	      0.04887132
      3.12000000	      0.00964957	      0.01793467	      0.04911076
      3.12500000	      0.00977233	      0.01804839	      0.04932702
      3.13000000	      0.00988967	      0.01815642	      0.04952678
      3.13500000	      0.00998776	      0.01824624	      0.04970702
      3.14000000	      0.01007054	      0.01832170	      0.04987150
      3.14500000	      0.01013757	      0.01838257	      0.05002915
      3.15000000	      0.01018915	      0.01842928	      0.05017966
      3.15500000	      0.01023985	      0.01847507	      0.05033107
      3.16000000	      0.01030006	      0.01852931	      0.05048722
      3.16500000	      0.01036154	      0.01858452	      0.05065153
      3.17000000	      0.01042561	      0.01864190	      0.05081360
      3.17500000	      0.01050065	      0.01870886	      0.05097322
      3.18000000	      0.01056203	      0.01876347	      0.05110211
      3.18500000	      0.01059953	      0.01879674	      0.05119108
      3.19000000	      0.01060989	      0.01880593	      0.05122740
      3.19500000	      0.01058919	      0.01878758	      0.05119849
      3.20000000	      0.01052207	      0.01872794	      0.05110362
      3.20500000	      0.01041846	      0.01863550	      0.05095826
      3.21000000	      0.01027774	      0.01850922	      0.05075879
      3.21500000	      0.01009988	      0.01834837	      0.05051492
      3.22000000	      0.00989016	      0.01815687	      0.05024614
      3.22500000	      0.00965544	      0.01794012	      0.04995257
      3.23000000	      0.00939915	      0.01770042	      0.04963487
      3.23500000	      0.00913350	      0.01744850	      0.04931358
      3.24000000	      0.00886895	      0.01719395	      0.04899341
      3.24500000	      0.00861383	      0.01694484	      0.04867654
      3.25000000	      0.00837614	      0.01670942	      0.04837441
      3.25500000	      0.00816268	      0.01649513	      0.04809653
      3.26000000	      0.00797499	      0.01630438	      0.04783662
      3.26500000	      0.00781518	      0.01614020	      0.04759950
      3.27000000	      0.00768548	      0.01600571	      0.04738959
      3.27500000	      0.00758677	      0.01590259	      0.04720405
      3.28000000	      0.00752156	      0.01583410	      0.04704736
      3.28500000	      0.00749312	      0.01580413	      0.04691720
      3.29000000	      0.00750374	      0.01581533	      0.04681586
      3.29500000	      0.00755189	      0.01586600	      0.04673474
      3.30000000	      0.00763685	      0.01595499	      0.04667411
      3.30500000	      0.00774992	      0.01607267	      0.04661368
      3.31000000	      0.00788183	      0.01620887	      0.04655470
      3.31500000	      0.00802074	      0.01635108	      0.04648543
      3.32000000	      0.00814343	      0.01647567	      0.04639831
      3.32500000	      0.00821000	      0.01654287	      0.04625914
      3.33000000	      0.00819457	      0.01652732	      0.04606085
      3.33500000	      0.00809182	      0.01642338	      0.04579815
      3.34000000	      0.00793439	      0.01626283	      0.04547236
      3.34500000	      0.00776088	      0.01608403	      0.04508487
      3.35000000	      0.00759683	      0.01591313	      0.04466733
      3.35500000	      0.00745622	      0.01576517	      0.04423252
      3.36000000	      0.00733774	      0.01563942	      0.04378727
      3.36500000	      0.00721537	      0.01550846	      0.04332790
      3.37000000	      0.00707783	      0.01535994	      0.04285369
      3.37500000	      0.00694361	      0.01521360	      0.04236122
      3.38000000	      0.00684216	      0.01510205	      0.04186868
      3.38500000	      0.00679713	      0.01505227	      0.04138765
      3.39000000	      0.00682608	      0.01508430	      0.04094735
      3.39500000	      0.00693583	      0.01520507	      0.04058518
      3.40000000	      0.00712028	      0.01540593	      0.04031706
      3.40500000	      0.00735685	      0.01565976	      0.04013376
      3.41000000	      0.00761965	      0.01593701	      0.04002201
      3.41500000	      0.00787725	      0.01620417	      0.04010110
      3.42000000	      0.00811280	      0.01644465	      0.04012803
      3.42500000	      0.00831158	      0.01664490	      0.04006973
      3.43000000	      0.00846525	      0.01679806	      0.03990006
      3.43500000	      0.00857067	      0.01690233	      0.03964035
      3.44000000	      0.00863651	      0.01696713	      0.03929354
      3.44500000	      0.00866809	      0.01699812	      0.03884587
      3.45000000	      0.00867890	      0.01700872	      0.03835385
      3.45500000	      0.00868408	      0.01701380	      0.03787450
      3.46000000	      0.00870100	      0.01703037	      0.03765338
      3.46500000	      0.00874036	      0.01706884	      0.03765339
      3.47000000	      0.00881841	      0.01714488	      0.03778856
      3.47500000	      0.00894176	      0.01726437	      0.03806537
      3.48000000	      0.00911159	      0.01742755	      0.03847906
      3.48500000	      0.00932163	      0.01762728	      0.03901151
      3.49000000	      0.00955876	      0.01785008	      0.03963382
      3.49500000	      0.00980301	      0.01807669	      0.04031544
      3.50000000	      0.01003524	      0.01828956	      0.04101298
      3.50500000	      0.01024029	      0.01847547	      0.04169318
      3.51000000	      0.01040499	      0.01862345	      0.04231687
      3.51500000	      0.01052197	      0.01872785	      0.04285891
      3.52000000	      0.01058634	      0.01878505	      0.04329954
      3.52500000	      0.01060289	      0.01879973	      0.04364458
      3.53000000	      0.01057729	      0.01877702	      0.04391009
      3.53500000	      0.01051516	      0.01872178	      0.04411604
      3.54000000	      0.01042724	      0.01864335	      0.04441952
      3.54500000	      0.01032272	      0.01854968	      0.04484096
      3.55000000	      0.01020681	      0.01844524	      0.04526802
      3.55500000	      0.01008559	      0.01833539	      0.04570345
      3.56000000	      0.00996568	      0.01822606	      0.04613311
      3.56500000	      0.00984544	      0.01811578	      0.04656169
      3.57000000	      0.00972695	      0.01800644	      0.04698666
      3.57500000	      0.00960950	      0.01789740	      0.04740481
      3.58000000	      0.00949175	      0.01778740	      0.04781764
      3.58500000	      0.00937632	      0.01767892	      0.04824563
      3.59000000	      0.00926760	      0.01757612	      0.04868015
      3.59500000	      0.00916695	      0.01748042	      0.04912018
      3.60000000	      0.00907730	      0.01739473	      0.04957021
      3.60500000	      0.00900340	      0.01732378	      0.05002701
      3.61000000	      0.00894469	      0.01726721	      0.05048063
      3.61500000	      0.00890392	      0.01722781	      0.05094678
      3.62000000	      0.00888528	      0.01720976	      0.05141934
      3.62500000	      0.00888653	      0.01721097	      0.05186723
      3.63000000	      0.00891307	      0.01723666	      0.05229956
      3.63500000	      0.00896596	      0.01728773	      0.05270653
      3.64000000	      0.00904394	      0.01736274	      0.05306673
      3.64500000	      0.00914433	      0.01745884	      0.05338317
      3.65000000	      0.00927300	      0.01758124	      0.05368862
      3.65500000	      0.00941786	      0.01771804	      0.05395775
      3.66000000	      0.00957453	      0.01786480	      0.05419107
      3.66500000	      0.00973923	      0.01801780	      0.05439411
      3.67000000	      0.00990232	      0.01816803	      0.05456273
      3.67500000	      0.01005331	      0.01830602	      0.05486605
      3.68000000	      0.01019240	      0.01843222	      0.05516452
      3.68500000	      0.01031528	      0.01854299	      0.05544068
      3.69000000	      0.01041553	      0.01863288	      0.05569137
      3.69500000	      0.01049661	      0.01870526	      0.05591841
      3.70000000	      0.01055998	      0.01876164	      0.05612438
      3.70500000	      0.01060380	      0.01880053	      0.05630052
      3.71000000	      0.01063205	      0.01882555	      0.05645323
      3.71500000	      0.01064793	      0.01883961	      0.05657808
      3.72000000	      0.01064971	      0.01884118	      0.05666992
      3.72500000	      0.01063720	      0.01883012	      0.05672145
      3.73000000	      0.01061160	      0.01880745	      0.05672860
      3.73500000	      0.01057354	      0.01877369	      0.05667948
      3.74000000	      0.01052634	      0.01873174	      0.05658019
      3.74500000	      0.01047438	      0.01868545	      0.05642442
      3.75000000	      0.01041916	      0.01863613	      0.05621764
      3.75500000	      0.01036198	      0.01858492	      0.05596851
      3.76000000	      0.01030290	      0.01853186	      0.05567859
      3.76500000	      0.01024101	      0.01847612	      0.05534165
      3.77000000	      0.01017551	      0.01841694	      0.05496775
      3.77500000	      0.01010916	      0.01835680	      0.05455929
      3.78000000	      0.01004377	      0.01829733	      0.05411822
      3.78500000	      0.00998162	      0.01824063	      0.05365418
      3.79000000	      0.00992715	      0.01819080	      0.05318294
      3.79500000	      0.00987952	      0.01814711	      0.05270361
      3.80000000	      0.00983798	      0.01810891	      0.05222829
      3.80500000	      0.00979918	      0.01807317	      0.05175471
      3.81000000	      0.00976387	      0.01804057	      0.05129527
      3.81500000	      0.00972643	      0.01800595	      0.05085002
      3.82000000	      0.00968864	      0.01797094	      0.05042513
      3.82500000	      0.00964993	      0.01793500	      0.05001895
      3.83000000	      0.00961345	      0.01790107	      0.04964159
      3.83500000	      0.00957592	      0.01786610	      0.04928734
      3.84000000	      0.00954167	      0.01783412	      0.04896195
      3.84500000	      0.00950002	      0.01779515	      0.04865868
      3.85000000	      0.00944557	      0.01774408	      0.04836595
      3.85500000	      0.00937176	      0.01767462	      0.04806811
      3.86000000	      0.00927549	      0.01758360	      0.04774509
      3.86500000	      0.00915801	      0.01747189	      0.04752331
      3.87000000	      0.00903330	      0.01735252	      0.04732568
      3.87500000	      0.00890555	      0.01722938	      0.04712935
      3.88000000	      0.00877730	      0.01710487	      0.04694293
      3.88500000	      0.00865562	      0.01698590	      0.04678001
      3.89000000	      0.00854189	      0.01687393	      0.04666518
      3.89500000	      0.00844530	      0.01677826	      0.04658575
      3.90000000	      0.00837849	      0.01671176	      0.04653922
      3.90500000	      0.00836252	      0.01669583	      0.04652050
      3.91000000	      0.00840625	      0.01673942	      0.04652541
      3.91500000	      0.00851096	      0.01684335	      0.04653238
      3.92000000	      0.00866574	      0.01699582	      0.04653323
      3.92500000	      0.00885805	      0.01718338	      0.04651987
      3.93000000	      0.00906204	      0.01738010	      0.04646802
      3.93500000	      0.00925774	      0.01756677	      0.04633402
      3.94000000	      0.00943275	      0.01773203	      0.04612322
      3.94500000	      0.00957627	      0.01786642	      0.04583834
      3.95000000	      0.00967333	      0.01795674	      0.04545227
      3.95500000	      0.00972904	      0.01800837	      0.04499788
      3.96000000	      0.00974497	      0.01802311	      0.04452884
      3.96500000	      0.00972443	      0.01800411	      0.04405875
      3.97000000	      0.00967905	      0.01796204	      0.04358944
      3.97500000	      0.00963580	      0.01792187	      0.04319969
      3.98000000	      0.00960257	      0.01789094	      0.04289588
      3.98500000	      0.00959991	      0.01788846	      0.04268099
      3.99000000	      0.00964677	      0.01793207	      0.04258153
      3.99500000	      0.00975183	      0.01802945	      0.04263597
      4.00000000	      0.00991463	      0.01817932	      0.04282695
      4.00500000	      0.01013556	      0.01838075	      0.04314853
      4.01000000	      0.01039974	      0.01861875	      0.04358426
      4.01500000	      0.01068539	      0.01887273	      0.04410147
      4.02000000	      0.01098091	      0.01913192	      0.04466147
      4.02500000	      0.01126722	      0.01937973	      0.04524519
      4.03000000	      0.01153079	      0.01960509	      0.04582042
      4.03500000	      0.01175645	      0.01979600	      0.04636446
      4.04000000	      0.01194524	      0.01995431	      0.04686463
      4.04500000	      0.01208268	      0.02006878	      0.04730247
      4.05000000	      0.01216693	      0.02013863	      0.04764700
      4.05500000	      0.01220227	      0.02016785	      0.04790574
      4.06000000	      0.01220383	      0.02016914	      0.04811614
      4.06500000	      0.01217595	      0.02014610	      0.04828712
      4.07000000	      0.01212995	      0.02010800	      0.04842517
      4.07500000	      0.01207515	      0.02006253	      0.04856010
      4.08000000	      0.01201695	      0.02001412	      0.04872156
      4.08500000	      0.01195255	      0.01996042	      0.04886934
      4.09000000	      0.01188074	      0.01990037	      0.04902628
      4.09500000	      0.01180548	      0.01983724	      0.04922218
      4.10000000	      0.01172219	      0.01976713	      0.04945945
      4.10500000	      0.01162593	      0.01968581	      0.04971280
      4.11000000	      0.01151563	      0.01959220	      0.04998825
      4.11500000	      0.01139068	      0.01948562	      0.05025894
      4.12000000	      0.01124665	      0.01936204	      0.05049340
      4.12500000	      0.01109049	      0.01922714	      0.05069037
      4.13000000	      0.01092797	      0.01908574	      0.05086980
      4.13500000	      0.01076266	      0.01894084	      0.05105217
      4.14000000	      0.01059680	      0.01879433	      0.05125924
      4.14500000	      0.01043682	      0.01865192	      0.05151659
      4.15000000	      0.01027745	      0.01850896	      0.05180738
      4.15500000	      0.01011740	      0.01836428	      0.05211235
      4.16000000	      0.00995937	      0.01822029	      0.05241530
      4.16500000	      0.00980875	      0.01808199	      0.05271328
      4.17000000	      0.00966760	      0.01795142	      0.05299108
      4.17500000	      0.00954206	      0.01783448	      0.05325761
      4.18000000	      0.00943710	      0.01773612	      0.05351835
      4.18500000	      0.00935305	      0.01765696	      0.05377252
      4.19000000	      0.00929275	      0.01759995	      0.05401821
      4.19500000	      0.00925818	      0.01756718	      0.05424573
      4.20000000	      0.00924865	      0.01755814	      0.05445575
      4.20500000	      0.00926141	      0.01757025	      0.05463952
      4.21000000	      0.00929526	      0.01760233	      0.05478930
      4.21500000	      0.00934397	      0.01764839	      0.05488694
      4.22000000	      0.00939971	      0.01770095	      0.05493342
      4.22500000	      0.00945914	      0.01775682	      0.05493276
      4.23000000	      0.00951896	      0.01781288	      0.05488902
      4.23500000	      0.00957869	      0.01786868	      0.05482156
      4.24000000	      0.00963604	      0.01792210	      0.05475198
      4.24500000	      0.00969252	      0.01797454	      0.05468263
      4.25000000	      0.00974645	      0.01802447	      0.05460899
      4.25500000	      0.00979498	      0.01806929	      0.05453034
      4.26000000	      0.00983656	      0.01810760	      0.05444681
      4.26500000	      0.00986932	      0.01813773	      0.05435037
      4.27000000	      0.00989317	      0.01815963	      0.05424579
      4.27500000	      0.00990938	      0.01817450	      0.05414367
      4.28000000	      0.00991986	      0.01818412	      0.05403269
      4.28500000	      0.00992444	      0.01818831	      0.05390448
      4.29000000	      0.00992259	      0.01818662	      0.05375048
      4.29500000	      0.00991049	      0.01817552	      0.05354528
      4.30000000	      0.00988813	      0.01815501	      0.05326857
      4.30500000	      0.00985048	      0.01812041	      0.05293937
      4.31000000	      0.00979756	      0.01807167	      0.05255026
      4.31500000	      0.00972991	      0.01800918	      0.05210658
      4.32000000	      0.00965057	      0.01793560	      0.05164747
      4.32500000	      0.00956199	      0.01785310	      0.05117922
      4.33000000	      0.00947050	      0.01776748	      0.05069651
      4.33500000	      0.00938230	      0.01768455	      0.05022728
      4.34000000	      0.00930256	      0.01760924	      0.04978317
      4.34500000	      0.00923346	      0.01754372	      0.04935593
      4.35000000	      0.00917485	      0.01748795	      0.04896237
      4.35500000	      0.00912653	      0.01744184	      0.04861470
      4.36000000	      0.00908363	      0.01740080	      0.04829406
      4.36500000	      0.00904418	      0.01736297	      0.04799887
      4.37000000	      0.00900528	      0.01732559	      0.04771954
      4.37500000	      0.00896557	      0.01728734	      0.04745001
      4.38000000	      0.00892882	      0.01725187	      0.04718756
      4.38500000	      0.00889846	      0.01722253	      0.04693435
      4.39000000	      0.00887511	      0.01719991	      0.04670893
      4.39500000	      0.00884977	      0.01717534	      0.04651552
      4.40000000	      0.00881454	      0.01714112	      0.04635369
      4.40500000	      0.00875756	      0.01708562	      0.04621408
      4.41000000	      0.00867014	      0.01700014	      0.04609620
      4.41500000	      0.00855271	      0.01688462	      0.04596575
      4.42000000	      0.00841723	      0.01675035	      0.04582110
      4.42500000	      0.00827433	      0.01660756	      0.04566573
      4.43000000	      0.00813596	      0.01646811	      0.04549976
      4.43500000	      0.00801480	      0.01634503	      0.04533013
      4.44000000	      0.00791242	      0.01624030	      0.04518778
      4.44500000	      0.00782761	      0.01615303	      0.04507172
      4.45000000	      0.00776194	      0.01608513	      0.04498334
      4.45500000	      0.00772504	      0.01604685	      0.04492648
      4.46000000	      0.00773029	      0.01605230	      0.04492057
      4.46500000	      0.00778905	      0.01611320	      0.04495597
      4.47000000	      0.00790253	      0.01623015	      0.04503674
      4.47500000	      0.00806727	      0.01639844	      0.04515802
      4.48000000	      0.00827615	      0.01660938	      0.04530395
      4.48500000	      0.00850616	      0.01683861	      0.04541611
      4.49000000	      0.00872860	      0.01705735	      0.04546383
      4.49500000	      0.00892596	      0.01724912	      0.04541147
      4.50000000	      0.00908519	      0.01740229	      0.04524719
      4.50500000	      0.00919124	      0.01750356	      0.04493585
      4.51000000	      0.00924757	      0.01755712	      0.04452432
      4.51500000	      0.00926424	      0.01757293	      0.04405835
      4.52000000	      0.00925714	      0.01756620	      0.04358163
      4.52500000	      0.00924107	      0.01755095	      0.04312642
      4.53000000	      0.00923843	      0.01754844	      0.04279264
      4.53500000	      0.00926398	      0.01757269	      0.04259267
      4.54000000	      0.00933329	      0.01763831	      0.04253451
      4.54500000	      0.00945300	      0.01775106	      0.04263078
      4.55000000	      0.00962575	      0.01791252	      0.04288988
      4.55500000	      0.00984565	      0.01811597	      0.04327395
      4.56000000	      0.01010099	      0.01834938	      0.04377238
      4.56500000	      0.01037377	      0.01859550	      0.04435660
      4.57000000	      0.01064005	      0.01883264	      0.04498329
      4.57500000	      0.01087910	      0.01904302	      0.04559921
      4.58000000	      0.01106973	      0.01920914	      0.04615707
      4.58500000	      0.01120115	      0.01932283	      0.04663794
      4.59000000	      0.01126859	      0.01938091	      0.04702681
      4.59500000	      0.01127622	      0.01938747	      0.04731760
      4.60000000	      0.01123349	      0.01935070	      0.04752675
      4.60500000	      0.01115679	      0.01928453	      0.04768656
      4.61000000	      0.01105431	      0.01919576	      0.04778409
      4.61500000	      0.01093794	      0.01909445	      0.04783615
      4.62000000	      0.01082065	      0.01899180	      0.04788227
      4.62500000	      0.01070576	      0.01889070	      0.04794082
      4.63000000	      0.01059259	      0.01879060	      0.04801818
      4.63500000	      0.01048598	      0.01869580	      0.04813630
      4.64000000	      0.01038704	      0.01860738	      0.04830159
      4.64500000	      0.01028827	      0.01851871	      0.04848318
      4.65000000	      0.01018919	      0.01842931	      0.04868159
      4.65500000	      0.01008442	      0.01833432	      0.04887344
      4.66000000	      0.00997401	      0.01823368	      0.04905491
      4.66500000	      0.00984963	      0.01811963	      0.04922302
      4.67000000	      0.00971509	      0.01799545	      0.04937609
      4.67500000	      0.00956929	      0.01785991	      0.04950152
      4.68000000	      0.00941738	      0.01771758	      0.04963136
      4.68500000	      0.00925957	      0.01756851	      0.04977242
      4.69000000	      0.00910238	      0.01741874	      0.04992633
      4.69500000	      0.00894863	      0.01727101	      0.05011468
      4.70000000	      0.00880273	      0.01712963	      0.05034203
      4.70500000	      0.00866876	      0.01699879	      0.05057207
      4.71000000	      0.00855002	      0.01688196	      0.05078403
      4.71500000	      0.00845244	      0.01678535	      0.05097469
      4.72000000	      0.00837811	      0.01671138	      0.05111827
      4.72500000	      0.00833060	      0.01666393	      0.05121416
      4.73000000	      0.00831230	      0.01664562	      0.05128413
      4.73500000	      0.00832496	      0.01665829	      0.05133761
      4.74000000	      0.00836746	      0.01670076	      0.05137529
      4.74500000	      0.00843445	      0.01676748	      0.05139535
      4.75000000	      0.00852141	      0.01685369	      0.05139259
      4.75500000	      0.00861964	      0.01695055	      0.05136105
      4.76000000	      0.00871934	      0.01704830	      0.05129896
      4.76500000	      0.00881390	      0.01714049	      0.05121369
      4.77000000	      0.00889868	      0.01722274	      0.05111996
      4.77500000	      0.00896838	      0.01729005	      0.05109911
      4.78000000	      0.00902182	      0.01734149	      0.05120816
      4.78500000	      0.00905824	      0.01737646	      0.05129591
      4.79000000	      0.00908037	      0.01739767	      0.05135730
      4.79500000	      0.00909151	      0.01740834	      0.05139722
      4.80000000	      0.00909443	      0.01741114	      0.05141936
      4.80500000	      0.00909302	      0.01740979	      0.05142602
      4.81000000	      0.00909208	      0.01740888	      0.05142126
      4.81500000	      0.00909069	      0.01740756	      0.05139799
      4.82000000	      0.00909230	      0.01740910	      0.05136215
      4.82500000	      0.00909824	      0.01741478	      0.05130513
      4.83000000	      0.00910524	      0.01742148	      0.05121586
      4.83500000	      0.00911378	      0.01742965	      0.05109726
      4.84000000	      0.00912091	      0.01743646	      0.05095274
      4.84500000	      0.00912371	      0.01743914	      0.05078226
      4.85000000	      0.00912191	      0.01743742	      0.05059403
      4.85500000	      0.00911598	      0.01743175	      0.05039464
      4.86000000	      0.00910212	      0.01741849	      0.05018185
      4.86500000	      0.00908088	      0.01739816	      0.04996419
      4.87000000	      0.00905355	      0.01737196	      0.04973942
      4.87500000	      0.00901882	      0.01733860	      0.04950799
      4.88000000	      0.00897951	      0.01730078	      0.04927797
      4.88500000	      0.00893706	      0.01725984	      0.04905955
      4.89000000	      0.00889609	      0.01722023	      0.04885714
      4.89500000	      0.00885544	      0.01718085	      0.04867391
      4.90000000	      0.00881479	      0.01714136	      0.04851794
      4.90500000	      0.00877551	      0.01710313	      0.04839605
      4.91000000	      0.00874191	      0.01707036	      0.04830822
      4.91500000	      0.00871290	      0.01704201	      0.04824660
      4.92000000	      0.00869293	      0.01702246	      0.04821683
      4.92500000	      0.00869328	      0.01702280	      0.04822680
      4.93000000	      0.00870994	      0.01703911	      0.04826835
      4.93500000	      0.00873167	      0.01706036	      0.04832877
      4.94000000	      0.00875422	      0.01708237	      0.04840982
      4.94500000	      0.00877514	      0.01710276	      0.04850014
      4.95000000	      0.00877725	      0.01710483	      0.04856778
      4.95500000	      0.00875659	      0.01708468	      0.04859425
      4.96000000	      0.00872186	      0.01705076	      0.04857204
      4.96500000	      0.00867662	      0.01700649	      0.04850196
      4.97000000	      0.00862336	      0.01695421	      0.04838548
      4.97500000	      0.00857398	      0.01690560	      0.04825065
      4.98000000	      0.00853662	      0.01686873	      0.04811822
      4.98500000	      0.00851146	      0.01684386	      0.04800600
      4.99000000	      0.00850603	      0.01683848	      0.04791838
      4.99500000	      0.00852188	      0.01685416	      0.04791952
      5.00000000	      0.00857776	      0.01690933	      0.04805689
